NORAD_CAT_ID,OBJECT_NAME,OBJECT_TYPE,EPOCH,MEAN_MOTION,ECCENTRICITY,INCLINATION,RA_OF_ASC_NODE,ARG_OF_PERICENTER,MEAN_ANOMALY,BSTAR,MEAN_MOTION_DOT,MEAN_MOTION_DDOT,TLE_LINE0,TLE_LINE1,TLE_LINE2,SEMIMAJOR_AXIS,PERIOD,APOGEE,PERIGEE,DECAYED
53775.0,STARLINK-4722,PAYLOAD,2024-03-31 14:07:33,15.08862427,0.0001416,53.2162,213.1455,83.6641,276.4512,0.0014819,0.0002339,0.0,0 STARLINK-4722,1 53775U 22111C   24091.58858185  .00023390  00000-0  14819-2 0  9990,2 53775  53.2162 213.1455 0001416  83.6641 276.4512 15.08862427 86799,6917.812,95.436,540.656,538.697,0.0
53775.0,STARLINK-4722,PAYLOAD,2024-03-31 15:42:56,15.08866241,0.000139,53.2161,212.8482,82.6486,277.4664,0.0015585,0.0002462,0.0,0 STARLINK-4722,1 53775U 22111C   24091.65482057  .00024620  00000-0  15585-2 0  9997,2 53775  53.2161 212.8482 0001390  82.6486 277.4664 15.08866241 86800,6917.8,95.436,540.627,538.704,0.0
53775.0,STARLINK-4722,PAYLOAD,2024-04-01 13:58:20,15.08833175,0.0001213,53.2158,208.6855,95.0735,265.0395,0.0009405,0.00014709,0.0,0 STARLINK-4722,1 53775U 22111C   24092.58217846  .00014709  00000-0  94050-3 0  9994,2 53775  53.2158 208.6855 0001213  95.0735 265.0395 15.08833175 86132,6917.901,95.438,540.605,538.927,0.0
53775.0,STARLINK-4722,PAYLOAD,2024-04-02 13:49:07,15.08837341,0.0001305,53.2158,204.2242,86.9476,273.1666,0.00041669,6.349e-05,0.0,0 STARLINK-4722,1 53775U 22111C   24093.57578182  .00006349  00000-0  41669-3 0  9996,2 53775  53.2158 204.2242 0001305  86.9476 273.1666 15.08837341 86283,6917.889,95.438,540.656,538.851,0.0
53775.0,STARLINK-4722,PAYLOAD,2024-04-03 13:39:54,15.08844894,0.0001247,53.2156,199.7623,88.2228,271.8907,0.00025156,3.718e-05,0.0,0 STARLINK-4722,1 53775U 22111C   24094.56937996  .00003718  00000-0  25156-3 0  9998,2 53775  53.2156 199.7623 0001247  88.2228 271.8907 15.08844894 87248,6917.865,95.437,540.593,538.868,0.0
53775.0,STARLINK-4722,PAYLOAD,2024-04-03 16:50:40,15.08845688,0.0001245,53.2158,199.1677,88.2977,271.8158,0.00022913,3.361e-05,0.0,0 STARLINK-4722,1 53775U 22111C   24094.70185936  .00003361  00000-0  22913-3 0  9995,2 53775  53.2158 199.1677 0001245  88.2977 271.8158 15.08845688 86454,6917.863,95.437,540.589,538.867,0.0
53775.0,STARLINK-4722,PAYLOAD,2024-04-04 13:30:41,15.08841212,0.0001263,53.2162,195.3009,89.8379,270.2758,0.00011506,1.544e-05,0.0,0 STARLINK-4722,1 53775U 22111C   24095.56298008  .00001544  00000-0  11506-3 0  9992,2 53775  53.2162 195.3009 0001263  89.8379 270.2758 15.08841212 86581,6917.877,95.437,540.615,538.868,0.0
53775.0,STARLINK-4722,PAYLOAD,2024-04-05 13:21:27,15.08850558,0.000125,53.2164,190.8414,89.0696,271.0439,0.00017438,2.489e-05,0.0,0 STARLINK-4722,1 53775U 22111C   24096.55657229  .00002489  00000-0  17438-3 0  9995,2 53775  53.2164 190.8414 0001250  89.0696 271.0439 15.08850558 87548,6917.848,95.437,540.578,538.848,0.0
53775.0,STARLINK-4722,PAYLOAD,2024-04-06 13:12:14,15.08856805,0.000114,53.2168,186.3826,97.2014,262.9107,-0.00073999,-0.00012051,0.0,0 STARLINK-4722,1 53775U 22111C   24097.55016567 -.00012051  00000-0 -73999-3 0  9992,2 53775  53.2168 186.3826 0001140  97.2014 262.9107 15.08856805 87690,6917.829,95.436,540.483,538.905,0.0
53775.0,STARLINK-4722,PAYLOAD,2024-04-06 16:23:02,15.08825673,5.05e-05,53.2172,185.7876,43.793,316.3102,-2.1269e-05,-6.26e-06,0.0,0 STARLINK-4722,1 53775U 22111C   24097.68267070 -.00000626  00000-0 -21269-4 0  9992,2 53775  53.2172 185.7876 0000505  43.7930 316.3102 15.08825673 86901,6917.924,95.438,540.139,539.44,0.0
53775.0,STARLINK-4722,PAYLOAD,2024-04-06 22:44:37,15.08786063,0.0001849,53.2175,184.601,108.3262,251.7932,-0.00070022,-0.00011398,0.0,0 STARLINK-4722,1 53775U 22111C   24097.94765218 -.00011398  00000-0 -70022-3 0  9996,2 53775  53.2175 184.6010 0001849 108.3262 251.7932 15.08786063 87756,6918.045,95.441,541.189,538.631,0.0
53775.0,STARLINK-4722,PAYLOAD,2024-04-07 09:52:17,15.08840363,0.0001531,53.2177,182.5169,94.8797,265.237,5.073e-05,5.19e-06,0.0,0 STARLINK-4722,1 53775U 22111C   24098.41131115  .00000519  00000-0  50730-4 0  9998,2 53775  53.2177 182.5169 0001531  94.8797 265.2370 15.08840363 87828,6917.879,95.438,540.803,538.685,0.0
53775.0,STARLINK-4722,PAYLOAD,2024-04-07 22:35:21,15.08850806,0.0001534,53.2178,180.138,90.3632,269.7536,0.00016096,2.275e-05,0.0,0 STARLINK-4722,1 53775U 22111C   24098.94122075  .00002275  00000-0  16096-3 0  9998,2 53775  53.2178 180.1380 0001534  90.3632 269.7536 15.08850806 87905,6917.847,95.437,540.774,538.651,0.0
53775.0,STARLINK-4722,PAYLOAD,2024-04-08 04:56:54,15.08844007,0.0001726,53.2148,178.9464,87.6022,272.5168,0.00025301,3.741e-05,0.0,0 STARLINK-4722,1 53775U 22111C   24099.20618346  .00003741  00000-0  25301-3 0  9997,2 53775  53.2148 178.9464 0001726  87.6022 272.5168 15.08844007 87139,6917.868,95.437,540.927,538.539,0.0
53775.0,STARLINK-4722,PAYLOAD,2024-04-08 11:18:26,15.08841289,0.0001548,53.2141,177.7574,93.6301,266.4868,0.00026589,3.946e-05,0.0,0 STARLINK-4722,1 53775U 22111C   24099.47114382  .00003946  00000-0  26589-3 0  9993,2 53775  53.2141 177.7574 0001548  93.6301 266.4868 15.08841289 87981,6917.876,95.437,540.812,538.671,0.0
53775.0,STARLINK-4722,PAYLOAD,2024-04-08 22:26:08,15.08839035,0.0001208,53.2157,175.6763,80.9449,279.1679,0.00051842,7.972e-05,0.0,0 STARLINK-4722,1 53775U 22111C   24099.93481855  .00007972  00000-0  51842-3 0  9999,2 53775  53.2157 175.6763 0001208  80.9449 279.1679 15.08839035 88056,6917.883,95.438,540.584,538.913,0.0
53775.0,STARLINK-4722,PAYLOAD,2024-04-09 11:09:14,15.08841505,0.0001832,53.2156,173.297,96.2456,263.8745,-1.0222e-05,-4.51e-06,0.0,0 STARLINK-4722,1 53775U 22111C   24100.46475289 -.00000451  00000-0 -10222-4 0  9999,2 53775  53.2156 173.2970 0001832  96.2456 263.8745 15.08841505 87328,6917.876,95.437,541.008,538.473,0.0
53775.0,STARLINK-4722,PAYLOAD,2024-04-10 11:00:01,15.08843834,0.000131,53.2163,168.839,87.4427,272.6715,6.2293e-06,-1.89e-06,0.0,0 STARLINK-4722,1 53775U 22111C   24101.45834655 -.00000189  00000-0  62293-5 0  9998,2 53775  53.2163 168.8390 0001310  87.4427 272.6715 15.08843834 88281,6917.869,95.437,540.64,538.827,0.0
53775.0,STARLINK-4722,PAYLOAD,2024-04-11 04:29:15,15.08818232,0.0001384,53.2163,165.5705,82.139,277.9759,0.00043878,6.698e-05,0.0,0 STARLINK-4722,1 53775U 22111C   24102.18698985  .00006698  00000-0  43878-3 0  9999,2 53775  53.2163 165.5705 0001384  82.1390 277.9759 15.08818232 87589,6917.947,95.439,540.769,538.854,0.0
53775.0,STARLINK-4722,PAYLOAD,2024-04-11 10:50:47,15.08843072,0.0001317,53.2164,164.3782,81.0326,279.0815,7.3965e-05,8.9e-06,0.0,0 STARLINK-4722,1 53775U 22111C   24102.45194209  .00000890  00000-0  73965-4 0  9998,2 53775  53.2164 164.3782 0001317  81.0326 279.0815 15.08843072 87626,6917.871,95.437,540.647,538.825,0.0
53775.0,STARLINK-4722,PAYLOAD,2024-04-12 04:20:04,15.08822299,0.0001469,53.2181,161.106,79.5988,280.517,-4.0552e-05,-9.33e-06,0.0,0 STARLINK-4722,1 53775U 22111C   24103.18060429 -.00000933  00000-0 -40552-4 0  9991,2 53775  53.2181 161.1060 0001469  79.5988 280.5170 15.08822299 87734,6917.934,95.439,540.816,538.783,0.0
53775.0,STARLINK-4722,PAYLOAD,2024-04-12 10:41:37,15.08815042,0.0001503,53.2169,159.915,112.4138,247.7013,-9.1566e-05,-1.744e-05,0.0,0 STARLINK-4722,1 53775U 22111C   24103.44557297 -.00001744  00000-0 -91566-4 0  9996,2 53775  53.2169 159.9150 0001503 112.4138 247.7013 15.08815042 87771,6917.957,95.439,540.861,538.782,0.0
53775.0,STARLINK-4722,PAYLOAD,2024-04-13 10:32:22,15.08849004,0.0001523,53.2178,155.4563,82.5993,277.5172,0.00017592,2.514e-05,0.0,0 STARLINK-4722,1 53775U 22111C   24104.43914884  .00002514  00000-0  17592-3 0  9995,2 53775  53.2178 155.4563 0001523  82.5993 277.5172 15.08849004 87927,6917.853,95.437,540.771,538.664,0.0
53775.0,STARLINK-4722,PAYLOAD,2024-04-14 04:01:37,15.08830011,0.0001353,53.2179,152.1872,87.025,273.0897,0.00050039,7.683e-05,0.0,0 STARLINK-4722,1 53775U 22111C   24105.16779435  .00007683  00000-0  50039-3 0  9992,2 53775  53.2179 152.1872 0001353  87.0250 273.0897 15.08830011 88038,6917.911,95.438,540.712,538.84,0.0
53775.0,STARLINK-4722,PAYLOAD,2024-04-14 10:23:10,15.088232,0.0001145,53.2174,150.9977,71.0824,289.0292,0.00040786,6.206e-05,0.0,0 STARLINK-4722,1 53775U 22111C   24105.43276174  .00006206  00000-0  40786-3 0  9992,2 53775  53.2174 150.9977 0001145  71.0824 289.0292 15.08823200 88076,6917.932,95.439,540.589,539.005,0.0
53775.0,STARLINK-4722,PAYLOAD,2024-04-15 11:49:19,15.08854801,0.0001413,53.217,146.2382,90.7425,269.3729,8.3651e-06,-1.55e-06,0.0,0 STARLINK-4722,1 53775U 22111C   24106.49258630 -.00000155  00000-0  83651-5 0  9994,2 53775  53.2170 146.2382 0001413  90.7425 269.3729 15.08854801 88238,6917.835,95.437,540.678,538.723,0.0
53775.0,STARLINK-4722,PAYLOAD,2024-04-15 19:46:14,15.08860028,0.0001477,53.2171,144.7499,78.0661,282.0497,7.5982e-05,9.22e-06,0.0,0 STARLINK-4722,1 53775U 22111C   24106.82377826  .00000922  00000-0  75982-4 0  9998,2 53775  53.2171 144.7499 0001477  78.0661 282.0497 15.08860028 89099,6917.819,95.436,540.706,538.662,0.0
53775.0,STARLINK-4722,PAYLOAD,2024-04-16 10:04:43,15.08845345,0.0001421,53.2161,142.0751,87.2661,272.8494,7.8939e-05,9.69e-06,0.0,0 STARLINK-4722,1 53775U 22111C   24107.41994581  .00000969  00000-0  78939-4 0  9993,2 53775  53.2161 142.0751 0001421  87.2661 272.8494 15.08845345 88370,6917.864,95.437,540.712,538.746,0.0
53775.0,STARLINK-4722,PAYLOAD,2024-04-17 08:20:07,15.08839441,0.0001574,53.2174,137.9095,85.3127,274.8045,-1.2026e-05,-4.79e-06,0.0,0 STARLINK-4722,1 53775U 22111C   24108.34731185 -.00000479  00000-0 -12026-4 0  9998,2 53775  53.2174 137.9095 0001574  85.3127 274.8045 15.08839441 88513,6917.882,95.438,540.836,538.658,0.0
53775.0,STARLINK-4722,PAYLOAD,2024-04-18 05:00:08,15.08828666,0.000151,53.2165,134.044,87.0844,273.0321,0.00011855,1.599e-05,0.0,0 STARLINK-4722,1 53775U 22111C   24109.20843676  .00001599  00000-0  11855-3 0  9993,2 53775  53.2165 134.0440 0001510  87.0844 273.0321 15.08828666 88649,6917.915,95.438,540.825,538.735,0.0
